NORAD_CAT_ID,OBJECT_NAME,OBJECT_TYPE,EPOCH,MEAN_MOTION,ECCENTRICITY,INCLINATION,RA_OF_ASC_NODE,ARG_OF_PERICENTER,MEAN_ANOMALY,BSTAR,MEAN_MOTION_DOT,MEAN_MOTION_DDOT,TLE_LINE0,TLE_LINE1,TLE_LINE2,SEMIMAJOR_AXIS,PERIOD,APOGEE,PERIGEE,DECAYED
53564.0,STARLINK-4577,PAYLOAD,2024-02-16 03:10:27,15.08843037,0.0001569,53.2166,192.5511,84.7752,275.3419,0.00012873,1.761e-05,0.0,0 STARLINK-4577,1 53564U 22101AP  24047.13226517  .00001761  00000-0  12873-3 0  9992,2 53564  53.2166 192.5511 0001569  84.7752 275.3419 15.08843037 82837,6917.871,95.437,540.822,538.651,0.0
53564.0,STARLINK-4577,PAYLOAD,2024-02-16 09:32:00,15.08844685,0.0001532,53.2165,191.3619,84.3978,275.7189,0.00018053,2.587e-05,0.0,0 STARLINK-4577,1 53564U 22101AP  24047.39722441  .00002587  00000-0  18053-3 0  9990,2 53564  53.2165 191.3619 0001532  84.3978 275.7189 15.08844685 82870,6917.866,95.437,540.791,538.671,0.0
53564.0,STARLINK-4577,PAYLOAD,2024-02-16 15:53:32,15.08851342,0.000162,53.2158,190.1727,83.7383,276.3793,0.00022633,3.317e-05,0.0,0 STARLINK-4577,1 53564U 22101AP  24047.66218018  .00003317  00000-0  22633-3 0  9991,2 53564  53.2158 190.1727 0001620  83.7383 276.3793 15.08851342 82911,6917.846,95.437,540.831,538.59,0.0
53564.0,STARLINK-4577,PAYLOAD,2024-02-17 09:22:47,15.08844329,0.0001759,53.2163,186.9011,98.3714,261.7478,0.00021359,3.113e-05,0.0,0 STARLINK-4577,1 53564U 22101AP  24048.39082325  .00003113  00000-0  21359-3 0  9990,2 53564  53.2163 186.9011 0001759  98.3714 261.7478 15.08844329 83027,6917.867,95.437,540.949,538.515,0.0
53564.0,STARLINK-4577,PAYLOAD,2024-02-17 14:08:56,15.08840658,0.0001574,53.2158,186.0106,80.7694,279.3476,0.0001499,2.099e-05,0.0,0 STARLINK-4577,1 53564U 22101AP  24048.58954559  .00002099  00000-0  14990-3 0  9993,2 53564  53.2158 186.0106 0001574  80.7694 279.3476 15.08840658 83051,6917.878,95.438,540.832,538.655,0.0
53564.0,STARLINK-4577,PAYLOAD,2024-02-17 15:44:19,15.08845568,0.000154,53.2162,185.7104,89.249,270.8678,0.00015055,2.109e-05,0.0,0 STARLINK-4577,1 53564U 22101AP  24048.65578241  .00002109  00000-0  15055-3 0  9996,2 53564  53.2162 185.7104 0001540  89.2490 270.8678 15.08845568 83067,6917.863,95.437,540.794,538.663,0.0
53564.0,STARLINK-4577,PAYLOAD,2024-02-18 12:24:20,15.08840328,0.0001548,53.2166,181.8452,109.8091,250.3068,6.9314e-05,8.15e-06,0.0,0 STARLINK-4577,1 53564U 22101AP  24049.51690375  .00000815  00000-0  69314-4 0  9995,2 53564  53.2166 181.8452 0001548 109.8091 250.3068 15.08840328 83197,6917.879,95.438,540.815,538.673,0.0
53564.0,STARLINK-4577,PAYLOAD,2024-02-18 15:35:06,15.08842611,0.0001246,53.2157,181.2519,86.6862,273.4272,0.00010226,1.34e-05,0.0,0 STARLINK-4577,1 53564U 22101AP  24049.64938376  .00001340  00000-0  10226-3 0  9996,2 53564  53.2157 181.2519 0001246  86.6862 273.4272 15.08842611 83211,6917.872,95.437,540.599,538.875,0.0
53564.0,STARLINK-4577,PAYLOAD,2024-02-19 15:25:54,15.08840775,0.0001418,53.2166,176.7916,90.2194,269.896,0.00013221,1.817e-05,0.0,0 STARLINK-4577,1 53564U 22101AP  24050.64298699  .00001817  00000-0  13221-3 0  9992,2 53564  53.2166 176.7916 0001418  90.2194 269.8960 15.08840775 83369,6917.878,95.438,540.724,538.762,0.0
53564.0,STARLINK-4577,PAYLOAD,2024-02-19 18:36:40,15.08845725,0.0001323,53.2158,176.1941,80.9064,279.2078,0.00018527,2.662e-05,0.0,0 STARLINK-4577,1 53564U 22101AP  24050.77546442  .00002662  00000-0  18527-3 0  9991,2 53564  53.2158 176.1941 0001323  80.9064 279.2078 15.08845725 83386,6917.863,95.437,540.643,538.813,0.0
53564.0,STARLINK-4577,PAYLOAD,2024-02-20 12:05:55,15.08836268,0.0001338,53.2155,172.927,97.387,262.7274,5.8252e-05,6.39e-06,0.0,0 STARLINK-4577,1 53564U 22101AP  24051.50411035  .00000639  00000-0  58252-4 0  9994,2 53564  53.2155 172.9270 0001338  97.3870 262.7274 15.08836268 83494,6917.892,95.438,540.682,538.831,0.0
53564.0,STARLINK-4577,PAYLOAD,2024-02-20 15:16:41,15.08840953,0.0001368,53.2157,172.3323,106.3244,253.7899,0.00011173,1.491e-05,0.0,0 STARLINK-4577,1 53564U 22101AP  24051.63658717  .00001491  00000-0  11173-3 0  9995,2 53564  53.2157 172.3323 0001368 106.3244 253.7899 15.08840953 83510,6917.877,95.437,540.689,538.796,0.0
53564.0,STARLINK-4577,PAYLOAD,2024-02-21 11:56:41,15.0884624,0.0001453,53.2167,168.4668,109.9,250.2149,0.00013072,1.793e-05,0.0,0 STARLINK-4577,1 53564U 22101AP  24052.49770435  .00001793  00000-0  13072-3 0  9997,2 53564  53.2167 168.4668 0001453 109.9000 250.2149 15.08846240 83642,6917.861,95.437,540.731,538.721,0.0
53564.0,STARLINK-4577,PAYLOAD,2024-02-21 13:32:04,15.08848028,0.0001425,53.2162,168.1691,109.7793,250.3353,0.0001538,2.161e-05,0.0,0 STARLINK-4577,1 53564U 22101AP  24052.56394321  .00002161  00000-0  15380-3 0  9995,2 53564  53.2162 168.1691 0001425 109.7793 250.3353 15.08848028 83651,6917.856,95.437,540.707,538.735,0.0
53564.0,STARLINK-4577,PAYLOAD,2024-02-21 15:07:27,15.08850677,0.0001391,53.2161,167.8715,105.0583,255.0563,0.00018926,2.726e-05,0.0,0 STARLINK-4577,1 53564U 22101AP  24052.63018200  .00002726  00000-0  18926-3 0  9998,2 53564  53.2161 167.8715 0001391 105.0583 255.0563 15.08850677 83660,6917.848,95.437,540.675,538.75,0.0
53564.0,STARLINK-4577,PAYLOAD,2024-02-22 11:47:29,15.08839313,0.0001423,53.2169,164.0056,90.8975,269.218,2.0428e-05,3.7e-07,0.0,0 STARLINK-4577,1 53564U 22101AP  24053.49130912  .00000037  00000-0  20428-4 0  9992,2 53564  53.2169 164.0056 0001423  90.8975 269.2180 15.08839313 83797,6917.882,95.438,540.732,538.763,0.0
53564.0,STARLINK-4577,PAYLOAD,2024-02-22 13:22:52,15.08840992,0.0001364,53.2166,163.7076,100.0095,260.1051,3.1596e-05,2.15e-06,0.0,0 STARLINK-4577,1 53564U 22101AP  24053.55754763  .00000215  00000-0  31596-4 0  9991,2 53564  53.2166 163.7076 0001364 100.0095 260.1051 15.08840992 83807,6917.877,95.437,540.686,538.799,0.0
53564.0,STARLINK-4577,PAYLOAD,2024-02-22 14:58:15,15.0884362,0.0001319,53.2164,163.4095,97.0877,263.0266,5.2595e-05,5.49e-06,0.0,0 STARLINK-4577,1 53564U 22101AP  24053.62378597  .00000549  00000-0  52595-4 0  9998,2 53564  53.2164 163.4095 0001319  97.0877 263.0266 15.08843620 83818,6917.869,95.437,540.647,538.822,0.0
53564.0,STARLINK-4577,PAYLOAD,2024-02-23 13:13:38,15.08846428,0.000141,53.2155,159.2477,86.0595,274.0558,7.0416e-05,8.33e-06,0.0,0 STARLINK-4577,1 53564U 22101AP  24054.55114558  .00000833  00000-0  70416-4 0  9994,2 53564  53.2155 159.2477 0001410  86.0595 274.0558 15.08846428 83952,6917.861,95.437,540.701,538.75,0.0
53564.0,STARLINK-4577,PAYLOAD,2024-02-24 11:29:03,15.08837011,0.0001393,53.2156,155.0847,85.8674,274.2477,0.0001057,1.395e-05,0.0,0 STARLINK-4577,1 53564U 22101AP  24055.47851329  .00001395  00000-0  10570-3 0  9998,2 53564  53.2156 155.0847 0001393  85.8674 274.2477 15.08837011 84099,6917.89,95.438,540.718,538.791,0.0
53564.0,STARLINK-4577,PAYLOAD,2024-02-24 13:04:26,15.08839711,0.0001461,53.2155,154.7859,95.3501,264.7658,0.00011288,1.509e-05,0.0,0 STARLINK-4577,1 53564U 22101AP  24055.54475160  .00001509  00000-0  11288-3 0  9995,2 53564  53.2155 154.7859 0001461  95.3501 264.7658 15.08839711 84104,6917.881,95.438,540.757,538.736,0.0
53564.0,STARLINK-4577,PAYLOAD,2024-02-25 12:55:12,15.08865905,0.0001478,53.2172,150.3243,98.0706,262.0454,0.00035864,5.428e-05,0.0,0 STARLINK-4577,1 53564U 22101AP  24056.53833631  .00005428  00000-0  35864-3 0  9996,2 53564  53.2172 150.3243 0001478  98.0706 262.0454 15.08865905 84252,6917.801,95.436,540.689,538.644,0.0
53564.0,STARLINK-4577,PAYLOAD,2024-02-26 11:10:37,15.08838576,0.0001556,53.2172,146.1609,103.3673,256.7492,9.5367e-06,-1.36e-06,0.0,0 STARLINK-4577,1 53564U 22101AP  24057.46570874 -.00000136  00000-0  95367-5 0  9994,2 53564  53.2172 146.1609 0001556 103.3673 256.7492 15.08838576 84392,6917.885,95.438,540.826,538.673,0.0
53564.0,STARLINK-4577,PAYLOAD,2024-02-26 12:46:00,15.08835339,0.0001411,53.2165,145.8619,91.528,268.5874,-0.00010329,-1.931e-05,0.0,0 STARLINK-4577,1 53564U 22101AP  24057.53194880 -.00001931  00000-0 -10329-3 0  9999,2 53564  53.2165 145.8619 0001411  91.5280 268.5874 15.08835339 84404,6917.895,95.438,540.736,538.784,0.0
53564.0,STARLINK-4577,PAYLOAD,2024-02-27 12:36:47,15.08842863,0.0001506,53.2168,141.407,94.6932,265.4233,0.00013635,1.883e-05,0.0,0 STARLINK-4577,1 53564U 22101AP  24058.52555032  .00001883  00000-0  13635-3 0  9996,2 53564  53.2168 141.4070 0001506  94.6932 265.4233 15.08842863 84554,6917.872,95.437,540.778,538.695,0.0
53564.0,STARLINK-4577,PAYLOAD,2024-02-27 22:09:06,15.08834655,0.0001497,53.2162,139.6228,92.054,268.0624,9.8776e-05,1.284e-05,0.0,0 STARLINK-4577,1 53564U 22101AP  24058.92299499  .00001284  00000-0  98776-4 0  9997,2 53564  53.2162 139.6228 0001497  92.0540 268.0624 15.08834655 84618,6917.897,95.438,540.797,538.726,0.0
53564.0,STARLINK-4577,PAYLOAD,2024-02-28 04:30:39,15.08833378,0.0001507,53.2161,138.4332,87.3487,272.7678,0.00020213,2.93e-05,0.0,0 STARLINK-4577,1 53564U 22101AP  24059.18795708  .00002930  00000-0  20213-3 0  9999,2 53564  53.2161 138.4332 0001507  87.3487 272.7678 15.08833378 84655,6917.901,95.438,540.808,538.723,0.0
53564.0,STARLINK-4577,PAYLOAD,2024-02-28 12:27:35,15.08836655,0.0001537,53.2163,136.9463,85.6221,274.4947,0.00021308,3.105e-05,0.0,0 STARLINK-4577,1 53564U 22101AP  24059.51915734  .00003105  00000-0  21308-3 0  9990,2 53564  53.2163 136.9463 0001537  85.6221 274.4947 15.08836655 84700,6917.891,95.438,540.819,538.692,0.0
53564.0,STARLINK-4577,PAYLOAD,2024-02-29 12:18:22,15.08843729,0.0001522,53.2157,132.4855,85.1916,274.925,0.00010558,1.393e-05,0.0,0 STARLINK-4577,1 53564U 22101AP  24060.51275511  .00001393  00000-0  10558-3 0  9996,2 53564  53.2157 132.4855 0001522  85.1916 274.9250 15.08843729 84857,6917.869,95.437,540.787,538.681,0.0
53564.0,STARLINK-4577,PAYLOAD,2024-02-29 13:53:45,15.08844387,0.0001589,53.216,132.188,94.5478,265.5696,0.00021778,3.18e-05,0.0,0 STARLINK-4577,1 53564U 22101AP  24060.57899482  .00003180  00000-0  21778-3 0  9993,2 53564  53.2160 132.1880 0001589  94.5478 265.5696 15.08844387 84868,6917.867,95.437,540.831,538.633,0.0
